[{"OBJECT_NAME":"GEESAT-2 07","OBJECT_ID":"2024-023G","EPOCH":"2026-03-09T22:31:13.906560","MEAN_MOTION":14.82879957,"ECCENTRICITY":0.00101218,"INCLINATION":50.0054,"RA_OF_ASC_NODE":94.2079,"ARG_OF_PERICENTER":37.2132,"MEAN_ANOMALY":322.9506,"EPHEMERIS_TYPE":0,"CLASSIFICATION_TYPE":"U","NORAD_CAT_ID":58911,"ELEMENT_SET_NO":999,"REV_AT_EPOCH":11418,"BSTAR":0.00018036206,"MEAN_MOTION_DOT":1.251e-5,"MEAN_MOTION_DDOT":0},{"OBJECT_NAME":"SL-24 DEB","OBJECT_ID":"2009-041J","EPOCH":"2026-03-09T23:26:33.856800","MEAN_MOTION":14.8487122,"ECCENTRICITY":0.00185833,"INCLINATION":97.633,"RA_OF_ASC_NODE":243.3649,"ARG_OF_PERICENTER":230.8314,"MEAN_ANOMALY":129.1251,"EPHEMERIS_TYPE":0,"CLASSIFICATION_TYPE":"U","NORAD_CAT_ID":35689,"ELEMENT_SET_NO":999,"REV_AT_EPOCH":89436,"BSTAR":0.00040149584,"MEAN_MOTION_DOT":3.372e-5,"MEAN_MOTION_DDOT":0}]
